GLOBALSTAR M075         
1 37192U 10054E   25279.19835836 -.00000082  00000+0  12242-3 0  9994
2 37192  51.9938 203.5323 0000632  65.3751  80.3421 12.62268367689863
GLOBALSTAR M073         
1 37193U 10054F   25279.04492647 -.00000063  00000+0  22785-3 0  9990
2 37193  52.0038 117.9039 0000838  99.9916  67.4576 12.62263433691839
GLOBALSTAR M083         
1 37739U 11033A   25279.13799016 -.00000105  00000+0 -81498-5 0  9990
2 37739  51.9859  66.1956 0000925 105.6319  66.0768 12.62276533660868
GLOBALSTAR M088         
1 37740U 11033B   25279.15999064 -.00000072  00000+0  17589-3 0  9999
2 37740  52.0232 331.9456 0000471  91.6314 298.9798 12.62268426656417
GLOBALSTAR M091         
1 37741U 11033C   25279.09547742 -.00000087  00000+0  95503-4 0  9994
2 37741  51.9997 295.4813 0000548  89.3233 308.9405 12.62260296657194
GLOBALSTAR M085         
1 37742U 11033D   25279.15596000 -.00000104  00000+0  81408-6 0  9994
2 37742  52.0114 246.3665 0000670  79.7156 293.2481 12.62265312657713
GLOBALSTAR M081         
1 37743U 11033E   25279.18238588 -.00000109  00000+0 -31691-4 0  9995
2 37743  51.9946 249.0119 0000446  88.3571 284.2355 12.62268947657860
GLOBALSTAR M089         
1 37744U 11033F   25279.06366807 -.00000090  00000+0  78734-4 0  9996
2 37744  51.9921 203.5796 0000459  47.3610 326.2468 12.62267520658693
